H1 CPF 01  gfz 2021 05 19 12  6392 terrasarx 
H2 0702601  6201 31698    2021 05 19 12 59 42 2021 05 24 00 00 42   120 1 1  0 0 0
H9
10 0 59356  52542.000000  0   -3896293.111  -4045022.896  -3997144.461
10 0 59356  52662.000000  0   -3636335.642  -3503046.668  -4693882.894
10 0 59356  52782.000000  0   -3303187.732  -2905359.456  -5308436.971
10 0 59356  52902.000000  0   -2901828.459  -2263642.502  -5830143.042
10 0 59356  53022.000000  0   -2438614.008  -1590216.813  -6249973.179
10 0 59356  53142.000000  0   -1921172.568   -897805.317  -6560681.078
10 0 59356  53262.000000  0   -1358275.432   -199293.451  -6756915.197
10 0 59356  53382.000000  0    -759688.661    492506.417  -6835299.668
10 0 59356  53502.000000  0    -136006.652   1165083.822  -6794486.206
10 0 59356  53622.000000  0     501530.735   1806450.547  -6635174.412
10 0 59356  53742.000000  0    1141234.890   2405348.934  -6360103.193
10 0 59356  53862.000000  0    1771178.982   2951446.872  -5974009.269
10 0 59356  53982.000000  0    2379415.907   3435515.491  -5483553.668
10 0 59356  54102.000000  0    2954202.011   3849585.930  -4897217.026
10 0 59356  54222.000000  0    3484222.694   4187084.802  -4225164.930
10 0 59356  54342.000000  0    3958816.823   4442945.056  -3479082.267
10 0 59356  54462.000000  0    4368194.896   4613688.800  -2671977.937
10 0 59356  54582.000000  0    4703644.842   4697479.176  -1817961.956
10 0 59356  54702.000000  0    4957721.541   4694140.836   -932000.555
10 0 59356  54822.000000  0    5124414.818   4605146.542    -29650.289
10 0 59356  54942.000000  0    5199288.932   4433570.343    873220.773
10 0 59356  55062.000000  0    5179592.854   4184009.262   1760718.804
10 0 59356  55182.000000  0    5064338.690   3862473.797   2617212.840
10 0 59356  55302.000000  0    4854342.791   3476248.956   3427619.693
10 0 59356  55422.000000  0    4552228.906   3033730.842   4177676.504
10 0 59356  55542.000000  0    4162395.289   2544242.788   4854195.413
10 0 59356  55662.000000  0    3690947.521   2017837.042   5445296.809
10 0 59356  55782.000000  0    3145594.686   1465085.791   5940616.946
10 0 59356  55902.000000  0    2535516.683    896865.864   6331484.380
10 0 59356  56022.000000  0    1871204.491    324143.162   6611064.279
10 0 59356  56142.000000  0    1164276.943   -242237.594   6774472.229
10 0 59356  56262.000000  0     427275.329   -791757.692   6818856.288
10 0 59356  56382.000000  0    -326560.242  -1314419.833   6743442.948
10 0 59356  56502.000000  0   -1083528.566  -1800929.557   6549549.182
10 0 59356  56622.000000  0   -1829715.428  -2242860.526   6240559.390
10 0 59356  56742.000000  0   -2551246.832  -2632799.885   5821869.913
10 0 59356  56862.000000  0   -3234547.088  -2964474.674   5300803.429
10 0 59356  56982.000000  0   -3866599.295  -3232856.546   4686487.255
10 0 59356  57102.000000  0   -4435197.889  -3434240.298   3989697.095
10 0 59356  57222.000000  0   -4929189.497  -3566295.714   3222671.484
10 0 59356  57342.000000  0   -5338697.806  -3628091.903   2398899.157
10 0 59356  57462.000000  0   -5655328.356  -3620094.083   1532880.815
10 0 59356  57582.000000  0   -5872345.813  -3544130.887    639868.471
10 0 59356  57702.000000  0   -5984819.449  -3403332.672   -264410.211
10 0 59356  57822.000000  0   -5989733.553  -3202043.506  -1164037.538
10 0 59356  57942.000000  0   -5886058.747  -2945707.825  -2043196.284
10 0 59356  58062.000000  0   -5674781.314  -2640734.767  -2886455.642
10 0 59356  58182.000000  0   -5358892.882  -2294345.437  -3679046.726
10 0 59356  58302.000000  0   -4943340.264  -1914406.399  -4407122.864
10 0 59356  58422.000000  0   -4434938.121  -1509254.116  -5057999.327
10 0 59356  58542.000000  0   -3842246.620  -1087514.354  -5620369.300
10 0 59356  58662.000000  0   -3175417.145   -657920.513  -6084491.417
10 0 59356  58782.000000  0   -2446011.163   -229135.521  -6442347.261
10 0 59356  58902.000000  0   -1666795.595    190419.104  -6687768.367
10 0 59356  59022.000000  0    -851518.487    592723.627  -6816530.989
10 0 59356  59142.000000  0     -14670.415    970308.831  -6826420.591
10 0 59356  59262.000000  0     828766.539   1316390.811  -6717265.144
10 0 59356  59382.000000  0    1663580.030   1624989.209  -6490940.331
10 0 59356  59502.000000  0    2474596.717   1891029.659  -6151341.229
10 0 59356  59622.000000  0    3246953.719   2110426.709  -5704321.995
10 0 59356  59742.000000  0    3966367.659   2280146.358  -5157604.045
10 0 59356  59862.000000  0    4619399.209   2398248.225  -4520654.970
10 0 59356  59982.000000  0    5193708.970   2463906.028  -3804535.207
10 0 59356  60102.000000  0    5678297.159   2477405.217  -3021714.700
10 0 59356  60222.000000  0    6063723.519   2440117.981  -2185863.364
10 0 59356  60342.000000  0    6342302.743   2354455.677  -1311614.585
10 0 59356  60462.000000  0    6508266.991   2223798.733   -414307.648
10 0 59356  60582.000000  0    6557893.649   2052405.770    490286.542
10 0 59356  60702.000000  0    6489590.510   1845303.155   1386250.003
10 0 59356  60822.000000  0    6303941.525   1608159.962   2257804.563
10 0 59356  60942.000000  0    6003708.203   1347148.919   3089599.975
10 0 59356  61062.000000  0    5593785.797   1068797.969   3866991.848
10 0 59356  61182.000000  0    5081116.365    779836.460   4576305.388
10 0 59356  61302.000000  0    4474562.349    487040.358   5205077.219
10 0 59356  61422.000000  0    3784744.205    197079.622   5742274.728
10 0 59356  61542.000000  0    3023843.727    -83629.080   6178486.267
10 0 59356  61662.000000  0    2205381.334   -349059.016   6506079.263
10 0 59356  61782.000000  0    1343971.614   -593698.742   6719328.280
10 0 59356  61902.000000  0     455058.882   -812664.112   6814510.630
10 0 59356  62022.000000  0    -445361.660  -1001794.135   6789966.306
10 0 59356  62142.000000  0   -1341031.088  -1157729.572   6646124.222
10 0 59356  62262.000000  0   -2215719.031  -1277972.659   6385494.299
10 0 59356  62382.000000  0   -3053515.643  -1360926.458   6012626.179
10 0 59356  62502.000000  0   -3839121.597  -1405914.396   5534037.218
10 0 59356  62622.000000  0   -4558132.376  -1413180.660   4958105.292
10 0 59356  62742.000000  0   -5197309.015  -1383870.019   4294927.517
10 0 59356  62862.000000  0   -5744829.840  -1319986.942   3556146.629
10 0 59356  62982.000000  0   -6190517.084  -1224334.923   2754748.735
10 0 59356  63102.000000  0   -6526035.799  -1100438.032   1904836.511
10 0 59356  63222.000000  0   -6745060.914   -952446.078   1021377.534
10 0 59356  63342.000000  0   -6843403.093   -785025.115    119933.136
10 0 59356  63462.000000  0   -6819091.883   -603236.255   -783624.064
10 0 59356  63582.000000  0   -6672414.311   -412406.040  -1673398.950
10 0 59356  63702.000000  0   -6405907.080   -217991.662  -2533761.128
10 0 59356  63822.000000  0   -6024306.251    -25445.439  -3349625.491
10 0 59356  63942.000000  0   -5534452.061    159919.847  -4106721.910
10 0 59356  64062.000000  0   -4945152.541    333060.056  -4791844.497
10 0 59356  64182.000000  0   -4267011.944    489320.595  -5393077.510
10 0 59356  64302.000000  0   -3512228.403    624546.312  -5899994.861
10 0 59356  64422.000000  0   -2694365.261    735177.036  -6303830.259
10 0 59356  64542.000000  0   -1828103.063    818328.338  -6597616.331
10 0 59356  64662.000000  0    -928975.314    871856.352  -6776294.434
10 0 59356  64782.000000  0     -13092.717    894405.405  -6836791.216
10 0 59356  64902.000000  0     903137.923    885437.475  -6778065.085
10 0 59356  65022.000000  0    1803300.238    845243.386  -6601124.943
10 0 59356  65142.000000  0    2671256.978    774935.929  -6309014.973
10 0 59356  65262.000000  0    3491434.344    676424.912  -5906767.517
10 0 59356  65382.000000  0    4249098.047    552373.785  -5401324.408
10 0 59356  65502.000000  0    4930618.053    406138.662  -4801428.663
10 0 59356  65622.000000  0    5523719.012    241691.391  -4117484.833
10 0 59356  65742.000000  0    6017709.482     63526.765  -3361388.032
10 0 59356  65862.000000  0    6403684.996   -123443.796  -2546325.243
10 0 59356  65982.000000  0    6674702.035   -314010.316  -1686550.316
10 0 59356  66102.000000  0    6825915.667   -502791.228   -797134.433
10 0 59356  66222.000000  0    6854676.847   -684365.807    106301.129
10 0 59356  66342.000000  0    6760587.548   -853409.650   1007865.228
10 0 59356  66462.000000  0    6545510.490  -1004829.415   1891684.546
10 0 59356  66582.000000  0    6213534.075  -1133893.199   2742192.603
10 0 59356  66702.000000  0    5770889.874  -1236352.758   3544412.812
10 0 59356  66822.000000  0    5225829.221  -1308554.758   4284227.791
10 0 59356  66942.000000  0    4588460.367  -1347539.236   4948631.678
10 0 59356  67062.000000  0    3870550.883  -1351120.721   5525958.992
10 0 59356  67182.000000  0    3085301.208  -1317951.433   6006087.581
10 0 59356  67302.000000  0    2247093.411  -1247566.186   6380611.263
10 0 59356  67422.000000  0    1371222.604  -1140407.564   6642981.278
10 0 59356  67542.000000  0     473613.610   -997830.880   6788615.571
10 0 59356  67662.000000  0    -429470.544   -822088.164   6814972.968
10 0 59356  67782.000000  0   -1321722.527   -616292.675   6721593.473
10 0 59356  67902.000000  0   -2187083.589   -384363.911   6510105.564
10 0 59356  68022.000000  0   -3010031.083   -130953.714   6184199.941
10 0 59356  68142.000000  0   -3775857.474    138645.217   5749570.405
10 0 59356  68262.000000  0   -4470936.826    418606.878   5213820.657
10 0 59356  68382.000000  0   -5082973.106    702693.839   4586337.173
10 0 59356  68502.000000  0   -5601225.982    984391.360   3878129.849
10 0 59356  68622.000000  0   -6016707.915   1257051.189   3101641.635
10 0 59356  68742.000000  0   -6322349.445   1514041.881   2270531.311
10 0 59356  68862.000000  0   -6513128.629   1748901.758   1399431.408
10 0 59356  68982.000000  0   -6586161.395   1955491.487    503685.667
99
